STARLINK-30414          
1 57859U 23141V   23274.16667824 -.01481530  00000+0 -15804-1 0  9995
2 57859  53.0540  90.3624 0000768  62.1499 119.2454 15.66123976  4151
STARLINK-30272          
1 57860U 23141W   23273.83334491 -.01639244  00000+0 -16731-1 0  9998
2 57860  53.0543  92.0027 0000570  60.6499  39.7216 15.67511369  4123
VICTUS NOX              
1 57861U 23142A   23274.11540405  .00012476  00000+0  49080-3 0  9990
2 57861  97.2728 100.3999 0056777  33.8856 326.5988 15.24261145  2442
SOYUZ-MS 24             
1 57862U 23143A   23272.65422324  .00028381  00000+0  51107-3 0  9993
2 57862  51.6412 171.0935 0006002  52.3064  31.3687 15.49560192417993
STARLINK-30432          
1 57864U 23144A   23274.16667824 -.01468923  00000+0 -12181-1 0  9990
2 57864  42.9998  94.2791 0001906 232.9159 357.7043 15.72371374  3510
STARLINK-30427          
1 57865U 23144B   23274.16667824 -.01688603  00000+0 -13839-1 0  9991
2 57865  42.9999  94.2790 0001693 280.4486 310.1982 15.72573931  3513
STARLINK-30393          
1 57866U 23144C   23274.16667824 -.01669632  00000+0 -13658-1 0  9992
2 57866  43.0001  94.2793 0002223 262.7321 328.0807 15.72576494  3515
STARLINK-30439          
1 57867U 23144D   23273.83334491 -.01691615  00000+0 -13156-1 0  9996
2 57867  42.9994  96.2979 0001731 275.1340 225.7447 15.73785993  3504
STARLINK-30442          
1 57868U 23144E   23273.86442774 -.00419365  00000+0 -23934-2 0  9999
2 57868  42.9991  96.0009 0002892 278.4100  81.6443 15.79047224  3467
STARLINK-30441          
1 57869U 23144F   23272.50001157  .00266264  00000+0  14441-2 0  9995
2 57869  42.9994 104.3504 0003612 237.0042 267.4399 15.78483848  3246
STARLINK-30460          
1 57870U 23144G   23274.16667824 -.01555468  00000+0 -12626-1 0  9992
2 57870  43.0000  94.2763 0001761 254.5667 336.9229 15.72555644  3569
STARLINK-30444          
1 57871U 23144H   23274.16667824 -.02285034  00000+0 -18603-1 0  9994
2 57871  43.0005  94.2758 0001856 274.0339 318.1845 15.73199701  3247
STARLINK-30446          
1 57872U 23144J   23274.16667824  .00272449  00000+0  13535-2 0  9997
2 57872  42.9995  94.1495 0003247 267.9393  14.8136 15.80398921  3255
STARLINK-30445          
1 57873U 23144K   23273.83334491 -.01665251  00000+0 -12891-1 0  9995
2 57873  42.9998  96.2960 0000980 282.2934 219.4359 15.73853073  3459
STARLINK-30447          
1 57874U 23144L   23274.16667824 -.00627225  00000+0 -30206-2 0  9991
2 57874  42.9985  93.3917 0004652 238.6201 345.1969 15.83185364  3577
STARLINK-30434          
1 57875U 23144M   23274.16667824 -.01456145  00000+0 -11978-1 0  9998
2 57875  43.0003  94.2754 0001756 267.8328 324.3635 15.72532593  3562
STARLINK-30429          
1 57876U 23144N   23274.16667824 -.01668213  00000+0 -13558-1 0  9996
2 57876  43.0004  94.2759 0001469 272.0836 320.1362 15.72732962  3565
STARLINK-30284          
1 57877U 23144P   23272.83334491  .00624949  16345-3  17763-2 0  9991
2 57877  42.9985 101.7000 0003079 275.3110 213.0558 15.92507758  3354
STARLINK-30433          
1 57878U 23144Q   23274.16667824 -.01662062  00000+0 -13483-1 0  9991
2 57878  43.0005  94.2748 0001513 260.0406 332.4900 15.72764186  3563
STARLINK-30358          
1 57879U 23144R   23274.16667824 -.01474942  00000+0 -12101-1 0  9996
2 57879  43.0007  94.2756 0000856 260.1946 332.5745 15.72643626  3567
STARLINK-30436          
1 57880U 23144S   23274.16667824 -.01474196  00000+0 -12073-1 0  9997
2 57880  43.0006  94.2741 0001367 244.5664 348.5091 15.72678409  3561
STARLINK-30406          
1 57881U 23144T   23273.83334491 -.01571492  00000+0 -12061-1 0  9996
2 57881  43.0003  96.2945 0000951 262.8593 239.7123 15.73883845  3514
STARLINK-30339          
1 57882U 23144U   23274.16667824 -.01658076  00000+0 -13406-1 0  9991
2 57882  43.0005  94.2739 0001912 267.9385 325.2099 15.72829451  3569
STARLINK-30282          
1 57883U 23144V   23274.16667824 -.01462587  00000+0 -11958-1 0  9992
2 57883  43.0007  94.2730 0002169 247.6362 345.7820 15.72682476  3561
STARLINK-30340          
1 57884U 23144W   23274.16667824 -.01477873  00000+0 -12297-1 0  9994
2 57884  43.0003  94.2235 0002357 273.6581 339.3558 15.72306328  3565
STARLINK-30279          
1 57885U 23144X   23274.16667824 -.01473870  00000+0 -12042-1 0  9996
2 57885  43.0005  94.2723 0001608 251.1494 342.3866 15.72729334  3508
2023-145A               
1 57886U 23145A   23273.21484307 -.00000038  00000+0  00000+0 0  9995
2 57886  34.9941 312.7035 0007681  18.3255  62.8496 15.23149209  1993
2023-145B               
1 57887U 23145B   23274.19202398 -.00000038  00000+0  00000+0 0  9992
2 57887  34.9908 306.4633 0008531  32.4668  48.0600 15.24377899  2141
2023-145C               
1 57888U 23145C   23274.18842804 -.00000038  00000+0  00000+0 0  9994
2 57888  34.9941 306.4331 0008552  37.1963  42.7349 15.24807008  2137
2023-145D               
1 57889U 23145D   23274.19167551 -.00000038  00000+0  00000+0 0  9995
2 57889  34.9940 306.4644 0010407  40.8502  39.5363 15.23196723  2118
2023-145E               
1 57890U 23145E   23272.50104926  .00022365  00000+0  92289-3 0  9997
2 57890  34.9967 317.1384 0008333  47.6266  91.6026 15.23124107  1825
STARLINK-30465          
1 57891U 23146A   23273.83334491 -.00800098  00000+0 -42969-2 0  9996
2 57891  42.9993 124.4304 0001768 244.6830 254.1510 15.81332924  2834
STARLINK-30470          
1 57892U 23146B   23273.83334491 -.00815557  00000+0 -43892-2 0  9999
2 57892  42.9995 124.4289 0001171 286.2438 213.3371 15.81331863  2836
STARLINK-30473          
1 57893U 23146C   23274.16667824 -.00842634  00000+0 -39155-2 0  9999
2 57893  42.9994 122.2091 0001736 271.9142  37.9086 15.84477046  2787
STARLINK-30443          
1 57894U 23146D   23273.83334491 -.00831823  00000+0 -44980-2 0  9994
2 57894  42.9995 124.4215 0000857 279.2701 223.3394 15.81274287  2889
STARLINK-30467          
1 57895U 23146E   23273.83334491 -.00819903  00000+0 -44216-2 0  9992
2 57895  42.9995 124.4246 0001108 289.1649 212.1440 15.81299762  2833
STARLINK-30469          
1 57896U 23146F   23273.83334491 -.00832343  00000+0 -45006-2 0  9994
2 57896  42.9995 124.4203 0001004 261.7503 241.2145 15.81275414  2885
STARLINK-30474          
1 57897U 23146G   23274.16667824 -.00839730  00000+0 -46766-2 0  9992
2 57897  42.9998 122.3751 0001159 274.9849 328.9272 15.80660437  2880
STARLINK-30479          
1 57898U 23146H   23273.83334491 -.00846048  00000+0 -45981-2 0  9995
2 57898  42.9996 124.4132 0001025 284.4904 221.4289 15.81200907  2883
STARLINK-30481          
1 57899U 23146J   23273.83334491 -.00850839  00000+0 -46250-2 0  9999
2 57899  42.9996 124.4128 0000831 265.5292 240.5821 15.81210676  2724
STARLINK-30457          
1 57900U 23146K   23273.83334491 -.00854195  00000+0 -46488-2 0  9994
2 57900  42.9996 124.4105 0000783 269.3001 237.6620 15.81194022  2728
STARLINK-30472          
1 57901U 23146L   23273.83334491 -.00841742  00000+0 -42443-2 0  9996
2 57901  42.9998 124.2924 0001073 260.3686 293.5647 15.82778588  2884
STARLINK-30462          
1 57902U 23146M   23273.83334491 -.00869773  00000+0 -47588-2 0  9996
2 57902  42.9996 124.4025 0000831 279.0372 231.0903 15.81119647  2838
STARLINK-30449          
1 57903U 23146N   23273.83334491 -.00879267  00000+0 -44813-2 0  9994
2 57903  43.0001 124.2762 0001508 268.1214 292.4501 15.82642123  2836
STARLINK-30466          
1 57904U 23146P   23274.16667824 -.00865408  00000+0 -48710-2 0  9993
2 57904  43.0000 122.3598 0000840 252.2001 357.8951 15.80500761  2887
STARLINK-30451          
1 57905U 23146Q   23273.83334491 -.00898170  00000+0 -46056-2 0  9991
2 57905  42.9999 124.2678 0000849 284.0587 279.8945 15.82567098  2888
STARLINK-30428          
1 57906U 23146R   23274.16667824 -.00876544  00000+0 -49510-2 0  9997
2 57906  43.0004 122.3559 0001727 259.1208 352.8717 15.80445821  2712
STARLINK-30482          
1 57907U 23146S   23273.83334491 -.00886942  00000+0 -48803-2 0  9999
2 57907  42.9997 124.3938 0001212 261.4325 252.2871 15.81038905  2514
STARLINK-30464          
1 57908U 23146T   23273.83334491 -.00896213  00000+0 -49473-2 0  9996
2 57908  42.9998 124.3893 0000816 283.6084 231.8664 15.80996895  2831
STARLINK-30463          
1 57909U 23146U   23273.83334491 -.00885609  00000+0 -48763-2 0  9995
2 57909  43.0000 124.3924 0001003 294.6332 219.7541 15.81022783  2881
STARLINK-30453          
1 57910U 23146V   23273.83334491 -.00906465  00000+0 -50187-2 0  9994
2 57910  42.9999 124.3861 0000910 269.8135 247.0017 15.80959092  2837
STARLINK-30478          
1 57911U 23146W   23273.83334491 -.00914353  00000+0 -47111-2 0  9993
2 57911  43.0001 124.2604 0000785 278.2830 288.3498 15.82507335  2881
STARLINK-30477          
1 57912U 23146X   23274.16667824 -.00907879  00000+0 -51904-2 0  9990
2 57912  43.0000 122.3406 0001537 260.8335 356.8778 15.80267834  2880
STARLINK-30450          
1 57913U 23147A   23273.50001157 -.00648359  00000+0 -23444-2 0  9993
2 57913  43.0000 155.1321 0001286 275.2889 296.9239 15.89091428  2133
STARLINK-30483          
1 57914U 23147B   23273.50001157 -.00655693  00000+0 -23656-2 0  9998
2 57914  43.0001 155.1281 0001144 276.4891 297.3259 15.89152911  2131
STARLINK-30454          
1 57915U 23147C   23274.16667824 -.00750603  00000+0 -28533-2 0  9997
2 57915  42.9994 150.9997 0000822 276.6458 156.6890 15.88335079  2248
STARLINK-30491          
1 57916U 23147D   23273.83334491 -.00703134  00000+0 -25538-2 0  9991
2 57916  42.9998 153.0350 0000706 273.2907  62.4747 15.89129529  2307
STARLINK-30501          
1 57917U 23147E   23274.16667824 -.00752731  00000+0 -28527-2 0  9996
2 57917  42.9995 150.9947 0000876 290.5310 144.9927 15.88399774  2363
